NORAD_CAT_ID,OBJECT_NAME,OBJECT_TYPE,EPOCH,MEAN_MOTION,ECCENTRICITY,INCLINATION,RA_OF_ASC_NODE,ARG_OF_PERICENTER,MEAN_ANOMALY,BSTAR,MEAN_MOTION_DOT,MEAN_MOTION_DDOT,TLE_LINE0,TLE_LINE1,TLE_LINE2,SEMIMAJOR_AXIS,PERIOD,APOGEE,PERIGEE,DECAYED
55309.0,STARLINK-5315,PAYLOAD,2024-04-20 15:01:43,14.98316538,0.0003245,69.9985,299.4427,276.2519,83.8271,-0.00029764,-3.641e-05,0.0,0 STARLINK-5315,1 55309U 23010AS  24111.62619731 -.00003641  00000-0 -29764-3 0  9999,2 55309  69.9985 299.4427 0003245 276.2519  83.8271 14.98316538 70704,6950.235,96.108,574.355,569.844,0.0
55309.0,STARLINK-5315,PAYLOAD,2024-04-20 21:26:15,14.98313856,0.0003165,69.9988,298.7698,274.1485,85.9313,-0.00028704,-3.515e-05,0.0,0 STARLINK-5315,1 55309U 23010AS  24111.89324015 -.00003515  00000-0 -28704-3 0  9999,2 55309  69.9988 298.7698 0003165 274.1485  85.9313 14.98313856 70743,6950.243,96.108,574.308,569.908,0.0
55309.0,STARLINK-5315,PAYLOAD,2024-04-21 13:27:35,14.98318362,0.0003274,69.9974,297.0865,273.3087,86.7697,-0.00010234,-1.314e-05,0.0,0 STARLINK-5315,1 55309U 23010AS  24112.56083093 -.00001314  00000-0 -10234-3 0  9996,2 55309  69.9974 297.0865 0003274 273.3087  86.7697 14.98318362 70848,6950.229,96.108,574.369,569.818,0.0
55309.0,STARLINK-5315,PAYLOAD,2024-04-21 19:52:07,14.9832135,0.0002544,69.9993,296.4132,264.4893,95.5976,3.3927e-06,-5.2e-07,0.0,0 STARLINK-5315,1 55309U 23010AS  24112.82786846 -.00000052  00000-0  33927-5 0  9994,2 55309  69.9993 296.4132 0002544 264.4893  95.5976 14.98321350 70562,6950.22,96.108,573.853,570.317,0.0
55309.0,STARLINK-5315,PAYLOAD,2024-04-21 21:28:15,14.98321487,0.0002411,69.9998,296.2456,259.1835,100.9053,8.9589e-06,1.4e-07,0.0,0 STARLINK-5315,1 55309U 23010AS  24112.89462812  .00000014  00000-0  89589-5 0  9997,2 55309  69.9998 296.2456 0002411 259.1835 100.9053 14.98321487 70898,6950.219,96.108,573.76,570.409,0.0
55309.0,STARLINK-5315,PAYLOAD,2024-04-21 23:04:23,14.98321714,0.0002416,69.9998,296.0772,258.8536,101.2352,1.3015e-05,6.2e-07,0.0,0 STARLINK-5315,1 55309U 23010AS  24112.96138835  .00000062  00000-0  13015-4 0  9993,2 55309  69.9998 296.0772 0002416 258.8536 101.2352 14.98321714 70907,6950.219,96.108,573.763,570.404,0.0
55309.0,STARLINK-5315,PAYLOAD,2024-04-22 19:54:09,14.98315708,0.0002754,69.9993,293.8883,267.985,92.0993,0.00023289,2.686e-05,0.0,0 STARLINK-5315,1 55309U 23010AS  24113.82927289  .00002686  00000-0  23289-3 0  9995,2 55309  69.9993 293.8883 0002754 267.9850  92.0993 14.98315708 70718,6950.237,96.108,574.016,570.188,0.0
55309.0,STARLINK-5315,PAYLOAD,2024-04-22 21:30:17,14.98317006,0.0002798,69.9991,293.7197,269.7146,90.3692,0.00023784,2.745e-05,0.0,0 STARLINK-5315,1 55309U 23010AS  24113.89603259  .00002745  00000-0  23784-3 0  9996,2 55309  69.9991 293.7197 0002798 269.7146  90.3692 14.98317006 71046,6950.233,96.108,574.043,570.153,0.0
55309.0,STARLINK-5315,PAYLOAD,2024-04-23 11:55:29,14.98329758,0.0002792,69.9991,292.2047,263.9947,96.0894,4.7365e-05,4.72e-06,0.0,0 STARLINK-5315,1 55309U 23010AS  24114.49687254  .00000472  00000-0  47365-4 0  9997,2 55309  69.9991 292.2047 0002792 263.9947  96.0894 14.98329758 70811,6950.194,96.107,573.999,570.118,0.0
55309.0,STARLINK-5315,PAYLOAD,2024-04-23 13:31:37,14.98329893,0.0002804,69.9992,292.0363,262.2709,97.8132,4.6518e-05,4.62e-06,0.0,0 STARLINK-5315,1 55309U 23010AS  24114.56363222  .00000462  00000-0  46518-4 0  9999,2 55309  69.9992 292.0363 0002804 262.2709  97.8132 14.98329893 71144,6950.193,96.107,574.007,570.109,0.0
55309.0,STARLINK-5315,PAYLOAD,2024-04-23 21:32:17,14.98332757,0.0002836,69.9992,291.1942,267.4605,92.6229,9.2425e-05,1.01e-05,0.0,0 STARLINK-5315,1 55309U 23010AS  24114.89742921  .00001010  00000-0  92425-4 0  9990,2 55309  69.9992 291.1942 0002836 267.4605  92.6229 14.98332757 71192,6950.184,96.107,574.02,570.078,0.0
55309.0,STARLINK-5315,PAYLOAD,2024-04-24 11:57:30,14.98328888,0.0002609,70.0,289.6801,257.3733,102.7135,1.8683e-05,1.3e-06,0.0,0 STARLINK-5315,1 55309U 23010AS  24115.49827294  .00000130  00000-0  18683-4 0  9990,2 55309  70.0000 289.6801 0002609 257.3733 102.7135 14.98328888 70962,6950.196,96.107,573.875,570.248,0.0
55309.0,STARLINK-5315,PAYLOAD,2024-04-24 13:33:38,14.98346871,0.0002536,70.0,289.5115,257.9132,102.1743,-0.00028972,-3.55e-05,0.0,0 STARLINK-5315,1 55309U 23010AS  24115.56503164 -.00003550  00000-0 -28972-3 0  9997,2 55309  70.0000 289.5115 0002536 257.9132 102.1743 14.98346871 71295,6950.141,96.106,573.768,570.243,0.0
55309.0,STARLINK-5315,PAYLOAD,2024-04-24 21:34:19,14.98342447,0.0002554,70.0004,288.67,260.2518,99.8353,-0.00024205,-2.981e-05,0.0,0 STARLINK-5315,1 55309U 23010AS  24115.89883136 -.00002981  00000-0 -24205-3 0  9995,2 55309  70.0004 288.6700 0002554 260.2518  99.8353 14.98342447 71344,6950.154,96.106,573.794,570.244,0.0
55309.0,STARLINK-5315,PAYLOAD,2024-04-25 11:59:31,14.98330953,0.0002718,70.0005,287.1553,263.745,96.3399,3.9375e-05,3.77e-06,0.0,0 STARLINK-5315,1 55309U 23010AS  24116.49967073  .00000377  00000-0  39375-4 0  9995,2 55309  70.0005 287.1553 0002718 263.7450  96.3399 14.98330953 71116,6950.19,96.107,573.944,570.166,0.0
55309.0,STARLINK-5315,PAYLOAD,2024-04-25 15:11:47,14.98331114,0.0002562,70.0002,286.8178,261.4657,98.6212,6.1362e-05,6.39e-06,0.0,0 STARLINK-5315,1 55309U 23010AS  24116.63318987  .00000639  00000-0  61362-4 0  9997,2 55309  70.0002 286.8178 0002562 261.4657  98.6212 14.98331114 71459,6950.189,96.107,573.835,570.274,0.0
55309.0,STARLINK-5315,PAYLOAD,2024-04-25 20:00:11,14.98363041,0.0002272,70.0003,286.313,264.4425,95.6475,-0.00044723,-5.429e-05,0.0,0 STARLINK-5315,1 55309U 23010AS  24116.83346227 -.00005429  00000-0 -44723-3 0  9992,2 55309  70.0003 286.3130 0002272 264.4425  95.6475 14.98363041 71167,6950.091,96.105,573.535,570.377,0.0
55309.0,STARLINK-5315,PAYLOAD,2024-04-25 21:36:19,14.98334965,0.000274,70.0002,286.1445,261.5772,98.5077,7.5893e-05,8.13e-06,0.0,0 STARLINK-5315,1 55309U 23010AS  24116.90022650  .00000813  00000-0  75893-4 0  9994,2 55309  70.0002 286.1445 0002740 261.5772  98.5077 14.98334965 71495,6950.178,96.107,573.947,570.138,0.0
55309.0,STARLINK-5315,PAYLOAD,2024-04-26 12:01:32,14.98328845,0.0002261,70.0008,284.63,252.0412,108.05,4.4174e-06,-4e-07,0.0,0 STARLINK-5315,1 55309U 23010AS  24117.50107173 -.00000040  00000-0  44174-5 0  9997,2 55309  70.0008 284.6300 0002261 252.0412 108.0500 14.98328845 71261,6950.196,96.107,573.633,570.49,0.0
55309.0,STARLINK-5315,PAYLOAD,2024-04-26 13:37:40,14.98325762,0.000228,70.0006,284.4618,253.0411,107.0498,3.5246e-05,3.28e-06,0.0,0 STARLINK-5315,1 55309U 23010AS  24117.56783267  .00000328  00000-0  35246-4 0  9994,2 55309  70.0006 284.4618 0002280 253.0411 107.0498 14.98325762 71596,6950.206,96.107,573.656,570.486,0.0
55309.0,STARLINK-5315,PAYLOAD,2024-04-26 21:38:20,14.98324109,0.0002432,70.0007,283.6203,255.9906,104.0983,0.0001343,1.51e-05,0.0,0 STARLINK-5315,1 55309U 23010AS  24117.90163183  .00001510  00000-0  13430-3 0  9995,2 55309  70.0007 283.6203 0002432 255.9906 104.0983 14.98324109 71643,6950.211,96.107,573.766,570.386,0.0
55309.0,STARLINK-5315,PAYLOAD,2024-04-27 12:03:33,14.98328443,0.0002569,70.0006,282.1059,263.426,96.6607,-3.4338e-05,-5.03e-06,0.0,0 STARLINK-5315,1 55309U 23010AS  24118.50247342 -.00000503  00000-0 -34338-4 0  9996,2 55309  70.0006 282.1059 0002569 263.4260  96.6607 14.98328443 71412,6950.198,96.107,573.848,570.277,0.0
55309.0,STARLINK-5315,PAYLOAD,2024-04-27 13:39:41,14.98325891,0.0002644,70.0003,281.9379,262.2864,97.7994,-5.5153e-05,-7.51e-06,0.0,0 STARLINK-5315,1 55309U 23010AS  24118.56923531 -.00000751  00000-0 -55153-4 0  9996,2 55309  70.0003 281.9379 0002644 262.2864  97.7994 14.98325891 71743,6950.206,96.107,573.908,570.233,0.0
55309.0,STARLINK-5315,PAYLOAD,2024-04-27 20:04:15,14.98317079,0.0002653,70.0003,281.2637,264.4946,95.5911,-0.00014108,-1.775e-05,0.0,0 STARLINK-5315,1 55309U 23010AS  24118.83628503 -.00001775  00000-0 -14108-3 0  9998,2 55309  70.0003 281.2637 0002653 264.4946  95.5911 14.98317079 71461,6950.233,96.108,573.942,570.254,0.0
55309.0,STARLINK-5315,PAYLOAD,2024-04-27 21:40:23,14.98319214,0.0002859,69.9997,281.0946,269.0937,90.9895,-0.00014686,-1.844e-05,0.0,0 STARLINK-5315,1 55309U 23010AS  24118.90304410 -.00001844  00000-0 -14686-3 0  9992,2 55309  69.9997 281.0946 0002859 269.0937  90.9895 14.98319214 71799,6950.226,96.108,574.078,570.104,0.0
55309.0,STARLINK-5315,PAYLOAD,2024-04-28 04:04:54,14.98327907,0.0003,69.9996,280.4216,264.2262,95.8555,-0.00011014,-1.407e-05,0.0,0 STARLINK-5315,1 55309U 23010AS  24119.17007808 -.00001407  00000-0 -11014-3 0  9990,2 55309  69.9996 280.4216 0003000 264.2262  95.8555 14.98327907 71513,6950.199,96.107,574.149,569.979,0.0
55309.0,STARLINK-5315,PAYLOAD,2024-04-28 12:05:34,14.98331607,0.0003036,69.9993,279.5795,272.2103,87.8708,3.356e-05,3.07e-06,0.0,0 STARLINK-5315,1 55309U 23010AS  24119.50387307  .00000307  00000-0  33560-4 0  9999,2 55309  69.9993 279.5795 0003036 272.2103  87.8708 14.98331607 71561,6950.188,96.107,574.163,569.943,0.0
55309.0,STARLINK-5315,PAYLOAD,2024-04-28 13:41:42,14.98331577,0.000304,69.9993,279.4111,272.196,87.8851,3.2997e-05,3.01e-06,0.0,0 STARLINK-5315,1 55309U 23010AS  24119.57063306  .00000301  00000-0  32997-4 0  9993,2 55309  69.9993 279.4111 0003040 272.1960  87.8851 14.98331577 71898,6950.188,96.107,574.166,569.94,0.0
55309.0,STARLINK-5315,PAYLOAD,2024-04-28 20:06:14,14.98334999,0.0003006,69.9993,278.7379,272.1321,87.9494,7.2123e-05,7.68e-06,0.0,0 STARLINK-5315,1 55309U 23010AS  24119.83766953  .00000768  00000-0  72123-4 0  9992,2 55309  69.9993 278.7379 0003006 272.1321  87.9494 14.98334999 71939,6950.177,96.107,574.132,569.953,0.0
55309.0,STARLINK-5315,PAYLOAD,2024-04-29 12:07:35,14.98325295,0.0003114,69.999,277.0536,271.4696,88.6106,0.00011612,1.293e-05,0.0,0 STARLINK-5315,1 55309U 23010AS  24120.50527355  .00001293  00000-0  11612-3 0  9998,2 55309  69.9990 277.0536 0003114 271.4696  88.6106 14.98325295 71713,6950.207,96.107,574.237,569.908,0.0
